; MyCAD G-code
G21 ; mm
G90 ; absolute
M5
$H
; --- layer: 0 ---
G0 X101.5 Y25.5 F6000
M3 S19
G1 X101.211 Y26.02 F4000
G1 X100.952 Y26.547 F4000
G1 X100.725 Y27.08 F4000
G1 X100.528 Y27.621 F4000
G1 X100.362 Y28.166 F4000
G1 X100.227 Y28.717 F4000
G1 X100.123 Y29.273 F4000
G1 X100.051 Y29.832 F4000
G1 X100.009 Y30.395 F4000
G1 X99.999 Y30.96 F4000
G1 X100.02 Y31.527 F4000
G1 X100.072 Y32.096 F4000
G1 X100.155 Y32.666 F4000
G1 X100.27 Y33.236 F4000
G1 X100.416 Y33.806 F4000
G1 X100.594 Y34.375 F4000
G1 X100.803 Y34.943 F4000
G1 X101.044 Y35.508 F4000
G1 X101.316 Y36.071 F4000
G1 X101.62 Y36.63 F4000
G1 X101.955 Y37.186 F4000
G1 X102.322 Y37.737 F4000
G1 X102.721 Y38.284 F4000
G1 X103.152 Y38.824 F4000
G1 X103.615 Y39.359 F4000
G1 X104.11 Y39.886 F4000
G1 X104.636 Y40.406 F4000
G1 X105.195 Y40.918 F4000
G1 X105.785 Y41.422 F4000
G1 X106.408 Y41.916 F4000
G1 X107.063 Y42.401 F4000
G1 X107.75 Y42.875 F4000
G1 X108.469 Y43.338 F4000
G1 X109.221 Y43.79 F4000
G1 X110.005 Y44.229 F4000
G1 X110.821 Y44.656 F4000
G1 X111.669 Y45.069 F4000
G1 X112.55 Y45.468 F4000
G1 X113.464 Y45.853 F4000
G1 X114.41 Y46.223 F4000
G1 X115.389 Y46.576 F4000
G1 X116.4 Y46.914 F4000
G1 X117.444 Y47.235 F4000
G1 X118.521 Y47.538 F4000
G1 X119.631 Y47.823 F4000
G1 X120.773 Y48.089 F4000
G1 X121.948 Y48.336 F4000
G1 X123.156 Y48.563 F4000
G1 X124.397 Y48.769 F4000
G1 X125.671 Y48.954 F4000
G1 X126.979 Y49.118 F4000
G1 X128.319 Y49.259 F4000
G1 X129.692 Y49.378 F4000
G1 X131.099 Y49.473 F4000
G1 X132.539 Y49.544 F4000
G1 X134.012 Y49.59 F4000
G1 X135.518 Y49.611 F4000
G1 X137.058 Y49.606 F4000
G1 X138.631 Y49.575 F4000
G1 X140.238 Y49.516 F4000
G1 X141.878 Y49.43 F4000
G1 X143.552 Y49.316 F4000
G1 X145.259 Y49.173 F4000
G1 X147 Y49 F4000
M5
G0 X147 Y49 F6000
M3 S19
G1 X147.721 Y48.876 F4000
G1 X148.431 Y48.738 F4000
G1 X149.13 Y48.586 F4000
G1 X149.818 Y48.421 F4000
G1 X150.495 Y48.242 F4000
G1 X151.16 Y48.051 F4000
G1 X151.814 Y47.845 F4000
G1 X152.457 Y47.627 F4000
G1 X153.089 Y47.396 F4000
G1 X153.709 Y47.151 F4000
G1 X154.317 Y46.894 F4000
G1 X154.915 Y46.625 F4000
G1 X155.5 Y46.343 F4000
G1 X156.074 Y46.048 F4000
G1 X156.637 Y45.741 F4000
G1 X157.188 Y45.422 F4000
G1 X157.727 Y45.091 F4000
G1 X158.254 Y44.747 F4000
G1 X158.769 Y44.392 F4000
G1 X159.273 Y44.026 F4000
G1 X159.765 Y43.647 F4000
G1 X160.244 Y43.257 F4000
G1 X160.712 Y42.856 F4000
G1 X161.168 Y42.443 F4000
G1 X161.612 Y42.02 F4000
G1 X162.043 Y41.585 F4000
G1 X162.463 Y41.139 F4000
G1 X162.87 Y40.682 F4000
G1 X163.264 Y40.215 F4000
G1 X163.647 Y39.737 F4000
G1 X164.017 Y39.249 F4000
G1 X164.375 Y38.75 F4000
G1 X164.72 Y38.241 F4000
G1 X165.053 Y37.722 F4000
G1 X165.373 Y37.193 F4000
G1 X165.681 Y36.654 F4000
G1 X165.976 Y36.105 F4000
G1 X166.259 Y35.546 F4000
G1 X166.528 Y34.978 F4000
G1 X166.785 Y34.4 F4000
G1 X167.029 Y33.813 F4000
G1 X167.26 Y33.217 F4000
G1 X167.479 Y32.612 F4000
G1 X167.684 Y31.998 F4000
G1 X167.876 Y31.375 F4000
G1 X168.056 Y30.743 F4000
G1 X168.222 Y30.102 F4000
G1 X168.375 Y29.453 F4000
G1 X168.515 Y28.796 F4000
G1 X168.642 Y28.13 F4000
G1 X168.755 Y27.456 F4000
G1 X168.855 Y26.774 F4000
G1 X168.942 Y26.084 F4000
G1 X169.015 Y25.386 F4000
G1 X169.075 Y24.68 F4000
G1 X169.121 Y23.967 F4000
G1 X169.154 Y23.246 F4000
G1 X169.173 Y22.518 F4000
G1 X169.179 Y21.782 F4000
G1 X169.17 Y21.04 F4000
G1 X169.149 Y20.29 F4000
G1 X169.113 Y19.534 F4000
G1 X169.063 Y18.77 F4000
G1 X169 Y18 F4000
M5
M2 ; end
